FENGYUN 1C DEB          
1 32119U 99025CRM 26053.92441677  .00001293  00000+0  83900-3 0  9994
2 32119  99.8841 287.5875 0084211 218.3364 141.1795 14.03028508947405
FENGYUN 1C DEB          
1 32123U 99025CRR 26065.30590368  .00001401  00000+0  24442-3 0  9993
2 32123  98.9502 244.9476 0160096  37.3897  85.2384 14.61824689725958
FENGYUN 1C DEB          
1 32125U 99025CRT 26063.21721753  .00028988  00000+0  36331-2 0  9995
2 32125  99.0703  57.7594 0170225  70.5902 291.3612 14.72395393717218
FENGYUN 1C DEB          
1 32126U 99025CRU 26062.89832050  .00001336  00000+0  14955-2 0  9998
2 32126  99.1068 298.0453 0281916  47.1071 315.3369 13.56961345628152
FENGYUN 1C DEB          
1 32128U 99025CRW 26063.38481883  .00001661  00000+0  66692-3 0  9996
2 32128  99.0206 112.9926 0395677 359.1071   0.9342 13.94470252641238
FENGYUN 1C DEB          
1 32129U 99025CRX 26065.27938596  .00009498  00000+0  36119-2 0  9991
2 32129  99.0602 191.9391 0070466 152.9782 239.3804 14.29791787954209
FENGYUN 1C DEB          
1 32130U 99025CRY 26063.26840604  .00001819  00000+0  59448-3 0  9992
2 32130  98.9115 237.7251 0083338  89.6322 271.4413 14.37854904974069
FENGYUN 1C DEB          
1 32136U 99025CSE 26047.43779428  .00002068  00000+0  67652-3 0  9997
2 32136  98.2693  48.1096 0066293 337.8454  21.9872 14.38278102660346
FENGYUN 1C DEB          
1 32141U 99025CSK 26064.82065397  .00000927  00000+0  60202-3 0  9994
2 32141  98.7471  69.0559 0073373 336.3421  23.4379 14.03719708961091
FENGYUN 1C DEB          
1 32143U 99025CSM 26064.76224270  .00000430  00000+0  21925-3 0  9994
2 32143  98.6085  44.1373 0102439 229.3267 129.8972 14.18062656971108
FENGYUN 1C DEB          
1 32150U 99025CSU 26065.30958283  .00001304  00000+0  22825-3 0  9992
2 32150  99.1843 102.2904 0170346 173.5906 186.7527 14.60909023989261
FENGYUN 1C DEB          
1 32152U 99025CSW 26047.69007425  .00006377  00000+0  13754-2 0  9994
2 32152  98.7642 217.2685 0053299 359.9524   0.1659 14.57876054635739
