[{"OBJECT_NAME":"FENGYUN 1C DEB","OBJECT_ID":"1999-025CRM","EPOCH":"2026-02-22T22:11:09.608928","MEAN_MOTION":14.03028508,"ECCENTRICITY":0.0084211,"INCLINATION":99.8841,"RA_OF_ASC_NODE":287.5875,"ARG_OF_PERICENTER":218.3364,"MEAN_ANOMALY":141.1795,"EPHEMERIS_TYPE":0,"CLASSIFICATION_TYPE":"U","NORAD_CAT_ID":32119,"ELEMENT_SET_NO":999,"REV_AT_EPOCH":94740,"BSTAR":0.000839,"MEAN_MOTION_DOT":1.293e-5,"MEAN_MOTION_DDOT":0},{"OBJECT_NAME":"FENGYUN 1C DEB","OBJECT_ID":"1999-025CRR","EPOCH":"2026-03-06T07:20:30.077952","MEAN_MOTION":14.61824689,"ECCENTRICITY":0.01600968,"INCLINATION":98.9502,"RA_OF_ASC_NODE":244.9476,"ARG_OF_PERICENTER":37.3897,"MEAN_ANOMALY":85.2384,"EPHEMERIS_TYPE":0,"CLASSIFICATION_TYPE":"U","NORAD_CAT_ID":32123,"ELEMENT_SET_NO":999,"REV_AT_EPOCH":72595,"BSTAR":0.00024442072,"MEAN_MOTION_DOT":1.401e-5,"MEAN_MOTION_DDOT":0},{"OBJECT_NAME":"FENGYUN 1C DEB","OBJECT_ID":"1999-025CRT","EPOCH":"2026-03-04T05:12:47.594592","MEAN_MOTION":14.72395393,"ECCENTRICITY":0.01702254,"INCLINATION":99.0703,"RA_OF_ASC_NODE":57.7594,"ARG_OF_PERICENTER":70.5902,"MEAN_ANOMALY":291.3612,"EPHEMERIS_TYPE":0,"CLASSIFICATION_TYPE":"U","NORAD_CAT_ID":32125,"ELEMENT_SET_NO":999,"REV_AT_EPOCH":71721,"BSTAR":0.0036330568,"MEAN_MOTION_DOT":0.00028988,"MEAN_MOTION_DDOT":0},{"OBJECT_NAME":"FENGYUN 1C DEB","OBJECT_ID":"1999-025CRU","EPOCH":"2026-03-03T21:33:34.891200","MEAN_MOTION":13.56961345,"ECCENTRICITY":0.0281916,"INCLINATION":99.1068,"RA_OF_ASC_NODE":298.0453,"ARG_OF_PERICENTER":47.1071,"MEAN_ANOMALY":315.3369,"EPHEMERIS_TYPE":0,"CLASSIFICATION_TYPE":"U","NORAD_CAT_ID":32126,"ELEMENT_SET_NO":999,"REV_AT_EPOCH":62815,"BSTAR":0.0014955,"MEAN_MOTION_DOT":1.336e-5,"MEAN_MOTION_DDOT":0},{"OBJECT_NAME":"FENGYUN 1C DEB","OBJECT_ID":"1999-025CRW","EPOCH":"2026-03-04T09:14:08.346912","MEAN_MOTION":13.94470252,"ECCENTRICITY":0.03956779,"INCLINATION":99.0206,"RA_OF_ASC_NODE":112.9926,"ARG_OF_PERICENTER":359.1071,"MEAN_ANOMALY":0.9342,"EPHEMERIS_TYPE":0,"CLASSIFICATION_TYPE":"U","NORAD_CAT_ID":32128,"ELEMENT_SET_NO":999,"REV_AT_EPOCH":64123,"BSTAR":0.00066692477,"MEAN_MOTION_DOT":1.661e-5,"MEAN_MOTION_DDOT":0},{"OBJECT_NAME":"FENGYUN 1C DEB","OBJECT_ID":"1999-025CRX","EPOCH":"2026-03-06T06:42:18.946944","MEAN_MOTION":14.29791787,"ECCENTRICITY":0.00704665,"INCLINATION":99.0602,"RA_OF_ASC_NODE":191.9391,"ARG_OF_PERICENTER":152.9782,"MEAN_ANOMALY":239.3804,"EPHEMERIS_TYPE":0,"CLASSIFICATION_TYPE":"U","NORAD_CAT_ID":32129,"ELEMENT_SET_NO":999,"REV_AT_EPOCH":95420,"BSTAR":0.0036119323,"MEAN_MOTION_DOT":9.498e-5,"MEAN_MOTION_DDOT":0},{"OBJECT_NAME":"FENGYUN 1C DEB","OBJECT_ID":"1999-025CRY","EPOCH":"2026-03-04T06:26:30.281856","MEAN_MOTION":14.37854904,"ECCENTRICITY":0.00833384,"INCLINATION":98.9115,"RA_OF_ASC_NODE":237.7251,"ARG_OF_PERICENTER":89.6322,"MEAN_ANOMALY":271.4413,"EPHEMERIS_TYPE":0,"CLASSIFICATION_TYPE":"U","NORAD_CAT_ID":32130,"ELEMENT_SET_NO":999,"REV_AT_EPOCH":97406,"BSTAR":0.00059447601,"MEAN_MOTION_DOT":1.819e-5,"MEAN_MOTION_DDOT":0},{"OBJECT_NAME":"FENGYUN 1C DEB","OBJECT_ID":"1999-025CSE","EPOCH":"2026-02-16T10:30:25.425792","MEAN_MOTION":14.38278102,"ECCENTRICITY":0.00662936,"INCLINATION":98.2693,"RA_OF_ASC_NODE":48.1096,"ARG_OF_PERICENTER":337.8454,"MEAN_ANOMALY":21.9872,"EPHEMERIS_TYPE":0,"CLASSIFICATION_TYPE":"U","NORAD_CAT_ID":32136,"ELEMENT_SET_NO":999,"REV_AT_EPOCH":66034,"BSTAR":0.00067652225,"MEAN_MOTION_DOT":2.068e-5,"MEAN_MOTION_DDOT":0},{"OBJECT_NAME":"FENGYUN 1C DEB","OBJECT_ID":"1999-025CSK","EPOCH":"2026-03-05T19:41:44.503008","MEAN_MOTION":14.03719708,"ECCENTRICITY":0.00733732,"INCLINATION":98.7471,"RA_OF_ASC_NODE":69.0559,"ARG_OF_PERICENTER":336.3421,"MEAN_ANOMALY":23.4379,"EPHEMERIS_TYPE":0,"CLASSIFICATION_TYPE":"U","NORAD_CAT_ID":32141,"ELEMENT_SET_NO":999,"REV_AT_EPOCH":96109,"BSTAR":0.00060202095,"MEAN_MOTION_DOT":9.27e-6,"MEAN_MOTION_DDOT":0},{"OBJECT_NAME":"FENGYUN 1C DEB","OBJECT_ID":"1999-025CSM","EPOCH":"2026-03-05T18:17:37.769280","MEAN_MOTION":14.18062656,"ECCENTRICITY":0.01024396,"INCLINATION":98.6085,"RA_OF_ASC_NODE":44.1373,"ARG_OF_PERICENTER":229.3267,"MEAN_ANOMALY":129.8972,"EPHEMERIS_TYPE":0,"CLASSIFICATION_TYPE":"U","NORAD_CAT_ID":32143,"ELEMENT_SET_NO":999,"REV_AT_EPOCH":97110,"BSTAR":0.00021924888,"MEAN_MOTION_DOT":4.3e-6,"MEAN_MOTION_DDOT":0},{"OBJECT_NAME":"FENGYUN 1C DEB","OBJECT_ID":"1999-025CSU","EPOCH":"2026-03-06T07:25:47.956512","MEAN_MOTION":14.60909023,"ECCENTRICITY":0.01703463,"INCLINATION":99.1843,"RA_OF_ASC_NODE":102.2904,"ARG_OF_PERICENTER":173.5906,"MEAN_ANOMALY":186.7527,"EPHEMERIS_TYPE":0,"CLASSIFICATION_TYPE":"U","NORAD_CAT_ID":32150,"ELEMENT_SET_NO":999,"REV_AT_EPOCH":98926,"BSTAR":0.00022824748,"MEAN_MOTION_DOT":1.304e-5,"MEAN_MOTION_DDOT":0},{"OBJECT_NAME":"FENGYUN 1C DEB","OBJECT_ID":"1999-025CSW","EPOCH":"2026-02-16T16:33:42.415200","MEAN_MOTION":14.57876054,"ECCENTRICITY":0.00532996,"INCLINATION":98.7642,"RA_OF_ASC_NODE":217.2685,"ARG_OF_PERICENTER":359.9524,"MEAN_ANOMALY":0.1659,"EPHEMERIS_TYPE":0,"CLASSIFICATION_TYPE":"U","NORAD_CAT_ID":32152,"ELEMENT_SET_NO":999,"REV_AT_EPOCH":63573,"BSTAR":0.0013754464,"MEAN_MOTION_DOT":6.377e-5,"MEAN_MOTION_DDOT":0}]
